HAWK-11B                
1 62379U 24247C   26068.44730104  .00009093  00000+0  32842-3 0  9993
2 62379  45.0161 115.7610 0004690 333.0326  27.0314 15.28847070 67738
STARLINK-34365          
1 64671U 25139H   26068.44965946  .00026197  00000+0  89298-3 0  9996
2 64671  53.1567 128.4161 0001097  93.2285 266.8841 15.30218259 40300
